{"fetched_at":"2026-03-29T16:36:15Z","count":15609,"tles":[{"name":"STARLINK-5002","line1":"1 53922U 22119AN  26087.60273549  .00001585  00000+0  11766-3 0  9997","line2":"2 53922  53.2154 228.9665 0001425  83.0716 277.0439 15.08839927194680","category":"Starlink"}]}