{
  "norad_id": 53922,
  "name": "STARLINK-5002",
  "history": [
    {
      "epoch": "2026-03-28T14:27:56.346336Z",
      "apogee_km": 540.7294100831314,
      "perigee_km": 538.7578141086842,
      "latitude_deg": 6.646706503312766e-05,
      "longitude_deg": -174.03904599503701,
      "height_km": 540.5201061589498,
      "semi_major_axis_km": 6917.880612095908,
      "eccentricity": 0.0001425,
      "inclination_deg": 53.2154,
      "raan_deg": 228.9665,
      "arg_perigee_deg": 83.0716,
      "mean_anomaly_deg": 277.0439,
      "mean_motion_rev_day": 15.08839927
    }
  ]
}